[{"OBJECT_NAME":"JILIN-1 GAOFEN 03D47","OBJECT_ID":"2022-167L","EPOCH":"2026-03-09T22:56:46.924224","MEAN_MOTION":15.31686941,"ECCENTRICITY":0.00089304,"INCLINATION":97.6835,"RA_OF_ASC_NODE":234.6581,"ARG_OF_PERICENTER":110.4031,"MEAN_ANOMALY":249.8169,"EPHEMERIS_TYPE":0,"CLASSIFICATION_TYPE":"U","NORAD_CAT_ID":54692,"ELEMENT_SET_NO":999,"REV_AT_EPOCH":18014,"BSTAR":0.00047294748,"MEAN_MOTION_DOT":0.00014417,"MEAN_MOTION_DDOT":0},{"OBJECT_NAME":"STARLINK-32015","OBJECT_ID":"2024-117W","EPOCH":"2026-03-09T21:38:33.752256","MEAN_MOTION":15.30198051,"ECCENTRICITY":0.00012414,"INCLINATION":53.1607,"RA_OF_ASC_NODE":35.7983,"ARG_OF_PERICENTER":90.3091,"MEAN_ANOMALY":269.8052,"EPHEMERIS_TYPE":0,"CLASSIFICATION_TYPE":"U","NORAD_CAT_ID":60111,"ELEMENT_SET_NO":999,"REV_AT_EPOCH":9692,"BSTAR":4.6290634e-5,"MEAN_MOTION_DOT":1.012e-5,"MEAN_MOTION_DDOT":0}]
